ANIK F1R                
1 28868U 05036A   20089.46479928 -.00000074  00000-0  00000-0 0  9996
2 28868   0.0221  85.1863 0002970 302.1835 219.9831  1.00273401 23691
GALAXY 15 (G-15)        
1 28884U 05041A   20090.84146705  .00000078  00000-0  00000-0 0  9991
2 28884   0.0241 135.4993 0001795 243.6837 339.4016  1.00272419 52995
SYRACUSE 3A             
1 28885U 05041B   20090.84077094  .00000128  00000-0  00000-0 0  9992
2 28885   0.0100  82.6829 0003483 318.1878 137.4770  1.00272410 52972
INMARSAT 4-F2           
1 28899U 05044A   20090.79494301  .00000011  00000-0  00000+0 0  9998
2 28899   2.9950  29.2757 0002760 343.2980 166.1314  1.00271851 52744
TELKOM 2                
1 28902U 05046A   20090.78452147 -.00000139  00000-0  00000-0 0  9999
2 28902   0.0178 144.9750 0000622 282.8548 200.2283  1.00271939 52686
SPACEWAY 2              
1 28903U 05046B   20090.78311057  .00000021  00000-0  00000-0 0  9993
2 28903   0.0443  47.1515 0001242 331.6466 338.3347  0.99848992 28588
METEOSAT-9 (MSG-2)      
1 28912U 05049B   20090.23485821  .00000021  00000-0  00000+0 0  9996
2 28912   4.2571  70.4076 0000967  20.3557 185.2715  1.00276833 52311
EUTELSAT 174A           
1 28924U 05052A   20090.86924381  .00000009  00000-0  00000-0 0  9998
2 28924   0.0685  22.7878 0006085 350.4523 302.3794  1.00272901 52222
ECHOSTAR 10             
1 28935U 06003A   20090.62031722 -.00000056  00000-0  00000+0 0  9991
2 28935   0.0172  97.1156 0001515 295.5766 268.8708  1.00272994 51751
HIMAWARI-7 (MTSAT-2)    
1 28937U 06004A   20090.88035536 -.00000244  00000-0  00000-0 0  9999
2 28937   0.0674 298.4882 0001667  56.1999 295.9465  1.00275132 51735
SPAINSAT                
1 28945U 06007A   20089.56270605 -.00000216  00000-0  00000-0 0  9991
2 28945   0.0197 206.9461 0003165 145.2840   7.7641  1.00271464 51459
EUTELSAT HOT BIRD 13E   
1 28946U 06007B   20090.59569869  .00000086  00000-0  00000-0 0  9994
2 28946   0.0613 247.6260 0002641 143.5939  24.6391  1.00271949 51548
JCSAT-5A                
1 29045U 06010A   20090.78938340 -.00000329  00000-0  00000-0 0  9995
2 29045   0.0283 129.9343 0001781 233.9282 240.9904  1.00271889 51181
ASTRA 1KR               
1 29055U 06012A   20090.30979385  .00000119  00000-0  00000+0 0  9995
2 29055   0.0435 263.5914 0002880  39.8635  15.4160  1.00273234 50988
GOES 13                 
1 29155U 06018A   20090.75535704  .00000038  00000-0  00000-0 0  9995
2 29155   0.3342 272.8633 0004604 314.7847 294.0478  1.00271965 50757
EUTELSAT 113 WEST A     
1 29162U 06020A   20090.53723566 -.00000038  00000-0  00000+0 0  9997
2 29162   0.0240  78.2180 0003083 299.8221 250.7176  1.00271975 50703
GALAXY 16 (G-16)        
1 29236U 06023A   20090.50847764 -.00000128  00000-0  00000-0 0  9997
2 29236   0.0232 258.5995 0002784 111.2818 262.5130  1.00274320 50505
EUTELSAT HOT BIRD 13B   
1 29270U 06032A   20090.44771611  .00000086  00000-0  00000-0 0  9997
2 29270   0.1003 320.0911 0005627  36.4626   5.8911  1.00271419 24554
JCSAT-3A                
1 29272U 06033A   20090.72480028 -.00000346  00000-0  00000-0 0  9990
2 29272   0.0093 208.7568 0002087 170.0602 198.6751  1.00270852 24980
SYRACUSE 3B             
1 29273U 06033B   20090.45882865 -.00000045  00000-0  00000+0 0  9991
2 29273   0.0183 179.7137 0004598 206.6134 321.9374  1.00270307 49990
KOREASAT 5 (MUGUNGWHA 5)
1 29349U 06034A   20090.25666719 -.00000359  00000-0  00000+0 0  9990
2 29349   0.0172 137.8245 0000826 228.7546  26.9876  1.00272302 49872
DIRECTV 9S              
1 29494U 06043A   20090.60453640 -.00000114  00000-0  00000-0 0  9997
2 29494   0.0202 177.9394 0003149 188.0362 298.8828  1.00271927 49343
OPTUS D1                
1 29495U 06043B   20090.78434788 -.00000112  00000-0  00000-0 0  9997
2 29495   0.0129 224.1955 0003516 143.9941 262.7949  1.00270667 49367
XM-4 (BLUES)            
1 29520U 06049A   20090.61228812 -.00000023  00000-0  00000-0 0  9994
2 29520   0.0072 297.9792 0000099 156.9637 198.6322  1.00272424 28710
BADR-4                  
1 29526U 06051A   20090.59146476  .00000144  00000-0  00000-0 0  9998
2 29526   0.0592   5.9055 0005278 349.8451  71.5941  1.00273728 28526
WILDBLUE-1              
1 29643U 06054A   20090.62031723 -.00000050  00000-0  00000-0 0  9990
2 29643   0.0170 224.8420 0001592 133.3018 302.4421  1.00272383 31042
AMC-18                  
1 29644U 06054B   20090.84702112  .00000103  00000-0  00000-0 0  9990
2 29644   0.0195 116.1143 0001973 277.3409 321.1666  1.00272384 48803
MEASAT-3                
1 29648U 06056A   20090.46854907 -.00000242  00000-0  00000-0 0  9999
2 29648   0.0561 123.0443 0002045 304.9198  20.5283  1.00271047 48795
INSAT-4B                
1 30793U 07007A   20090.81160572 -.00000190  00000-0  00000-0 0  9998
2 30793   0.2548  98.5530 0005548 222.7814 244.9798  1.00273192 19458
SKYNET 5A               
1 30794U 07007B   20090.77271733 -.00000272  00000-0  00000-0 0  9997
2 30794   0.3834  87.5540 0003637 295.5059 178.9070  1.00270244 47942
ANIK F3                 
1 31102U 07009A   20090.65326331 -.00000002  00000-0  00000+0 0  9995
2 31102   0.0179 215.8577 0002352 144.6392 304.4666  1.00270955 47573
ASTRA 1L                
1 31306U 07016A   20082.33660692  .00000103  00000-0  00000+0 0  9997
2 31306   0.0708 301.0443 0004150  36.1059 343.5098  1.00275160 47194
GALAXY 17 (G-17)        
1 31307U 07016B   20090.50327066 -.00000175  00000-0  00000-0 0  9992
2 31307   0.0293  76.2373 0003367 303.9418 258.3511  1.00273539 47191
ZHONGXING-6B            
1 31800U 07031A   20090.62693267 -.00000363  00000-0  00000-0 0  9998
2 31800   0.0104 237.9015 0003083 127.9167 163.8574  1.00273905 46677
DIRECTV 10              
1 31862U 07032A   20090.82618757 -.00000104  00000-0  00000-0 0  9993
2 31862   0.0372  26.9249 0000391 256.8702  99.5550  1.00272061 46652
SPACEWAY 3              
1 32018U 07036A   20090.64355765 -.00000152  00000-0  00000+0 0  9990
2 32018   0.0335  17.0634 0000240 308.4490 359.7006  1.00271128 46363
BSAT-3A                 
1 32019U 07036B   20090.76245815 -.00000352  00000-0  00000-0 0  9991
2 32019   0.0355 209.6442 0001068  71.1898 292.0934  1.00273152 27768
INSAT-4CR               
1 32050U 07037A   20088.10084330  .00000124  00000-0  00000-0 0  9991
2 32050   1.1432  93.9789 0006967 200.8390 335.3426  1.00275293 28609
OPTUS D2                
1 32252U 07044A   20090.88035536 -.00000185  00000-0  00000-0 0  9993
2 32252   0.0210 108.8713 0003660 257.8732 290.9008  1.00271231 45684
INTELSAT 11 (IS-11)     
1 32253U 07044B   20090.44099664 -.00000269  00000-0  00000-0 0  9991
2 32253   0.0181 202.4535 0001433 172.7222 288.8877  1.00269943 45845
WGS F1 (USA 195)        
1 32258U 07046A   20090.24702088  .00000041  00000-0  00000+0 0  9993
2 32258   0.0166 183.2886 0000196 173.7058 286.0236  1.00271168 45550
STAR ONE C1             
1 32293U 07056A   20090.80952196 -.00000277  00000-0  00000-0 0  9995
2 32293   0.0176 176.5271 0002823 197.8670  40.6805  1.00269025 29017
SKYNET 5B               
1 32294U 07056B   20090.86994035  .00000141  00000-0  00000-0 0  9999
2 32294   0.0705  19.2454 0003827 353.9665 153.7482  1.00273711 45445
ASTRA 4A (SIRIUS 4)     
1 32299U 07057A   20090.29841091  .00000032  00000-0  00000-0 0  9994
2 32299   0.0202 293.1448 0002935  71.2276 295.9938  1.00271958 28925
HORIZONS 2              
1 32388U 07063B   20089.50813289 -.00000183  00000-0  00000-0 0  9998
2 32388   0.0168 120.6117 0002821 235.6765  98.8547  1.00272014 45115
THURAYA-3               
1 32404U 08001A   20090.84077025 -.00000301  00000-0  00000-0 0  9991
2 32404   3.7677   8.5309 0004938 355.3161 226.0041  1.00271343 44765
EXPRESS-AM33            
1 32478U 08003A   20091.28577848 -.00000283  00000-0  00000-0 0  9990
2 32478   0.0288 303.8611 0001251 173.8959 270.7152  1.00270763 44869
THOR 5                  
1 32487U 08006A   20090.83522328 -.00000010  00000-0  00000-0 0  9994
2 32487   0.0218 239.2172 0002843 140.9764 108.3914  1.00272587 44557
AMC-14                  
1 32708U 08011A   20090.06878128  .00000091  00000-0  00000+0 0  9990
2 32708  20.8398  48.5034 0045031 357.7192 184.4626  1.00270466 45335
DIRECTV 11              
1 32729U 08013A   20090.60516787 -.00000127  00000-0  00000+0 0  9996
2 32729   0.0432  18.8328 0000309 350.4272 297.8759  1.00272441 44173
ICO G1                  
1 32763U 08016A   20090.82063329 -.00000170  00000-0  00000-0 0  9999
2 32763   3.6287  11.4422 0002326   4.5410  15.2305  1.00271786 43836
VINASAT-1               
1 32767U 08018A   20090.73313439 -.00000330  00000-0  00000-0 0  9993
2 32767   0.0119 200.9343 0002179 205.3619 178.1444  1.00268748 43848
STAR ONE C2             
1 32768U 08018B   20089.93312135 -.00000265  00000-0  00000-0 0  9993
2 32768   0.0264 135.2022 0001258 260.2708  58.2227  1.00270976 43900
TIANLIAN 1-01           
1 32779U 08019A   20090.46550993 -.00000137  00000-0  00000-0 0  9990
2 32779   3.9524  72.8344 0035122 258.2173 104.7415  1.00270612 43662
AMOS-3                  
1 32794U 08022A   20090.59229649 -.00000036  00000-0  00000-0 0  9994
2 32794   0.0162 180.1479 0002047 182.9337  34.4502  1.00271053 59609
GALAXY 18 (G-18)        
1 32951U 08024A   20090.46531634  .00000024  00000-0  00000+0 0  9992
2 32951   0.0169 255.3794 0002878 118.4004 219.0150  1.00273032 43324
CHINASAT 9 (ZX 9)       
1 33051U 08028A   20090.78938021 -.00000248  00000-0  00000+0 0  9993
2 33051   0.0116 186.0566 0004148 183.0301 195.9220  1.00271124 43257
SKYNET 5C               
1 33055U 08030A   20090.42202036 -.00000140  00000-0  00000-0 0  9993
2 33055   0.0649 357.7982 0003718   5.2075 319.3492  1.00272462 43198
TURKSAT 3A              
1 33056U 08030B   20088.16368667  .00000145  00000-0  00000+0 0  9998
2 33056   0.0557  82.5372 0004808 309.0851 255.3476  1.00275760 43309
